; Corregido por Corrector G-Code (impresora de cemento)
; Original: PI3MK2_Fijador.gcode
;
;FLAVOR:Marlin
;TIME:233
;Filament used: 13.3167m
;Layer height: 5
;MINX:87.456
;MINY:75.953
;MINZ:0.3
;MAXX:132.546
;MAXY:144.043
;MAXZ:20.294
;POSTPROCESSED
;Generated with Cura_SteamEngine 5.0.0
;
; thumbnail begin 32 32 1000
; iVBORw0KGgoAAAANSUhEUgAAACAAAAAgCAYAAABzenr0AAAACXBIWXMAAA7EAAAOxAGVKw4bAAACoE
; lEQVRYhb2XPWsUURSGn3Pvbia7WZOYEBUVDCgRAlsEq9hYWdv5E9KLjRgbRSz8CTai+BcslWCZSrAy
; 2iUYMSHZzW72c+Yci5nNro1wR3cvXGZnYN7z8J6PuSvkWI83VjYq0+7h7bXS8uK8Tz5ut9oHx/rGa/
; 3J01f7rRAtlwfAi9tcWiislCI3JVBaOOcXFmfdA6VSDdUq5AEwM1u7GXFrNQKEooMP221mKtKZCIAa
; mBkYgKX3AP1wrVwAYDFGFnV4Pe2FK+WqARHpqw3vVcEMzFswQs4UZJ5nEGbpj7L4ZCIAZlhihg0Asu
; eNHCnIBeAdHdNhYCxNQdyLJ+OAZsFT64VBPZQjDe6Df2hDshRYVg5Gpx2ulQtAoHc2BgBTwKDRF/vb
; e/8NAER1pAvUUhfmShOchKojXZDBNHNo5XNALNbRFFhaA80cBLkAnNDnrAjPPgk0j3UykzDRYSfAwA
; FYOt+Y2CTMtoEMAQ4OwrXyTsK2ZZWPZV2gsNeNJudAoiMp0PQaRXuTmYSD4OJARP6oh9CV8zxAz4BW
; F3rJ4LuAbW2Fa+WbAyZqBof1hKgogxTE2Q5awQ68eV69Vylz1wxOTpWjejI4m/h3z6rBp+JgABHuOy
; eziRonp0q9kWAGajjzfHr7onpnrADOs+4dxLHR6hi1ppKoIYA45pNEH4XoBdXA65erl7yxrAqdnmHO
; aLeVciQACNBqM75/RtPi1kVEVq4V6fTSvuv2jE7XuH61iPdgsD82AI9bdwKCcHHBM1UUCl6YnXGYgR
; MhUR0fwFEjviECItCP4cqFIsuXC9QaaR+KQJzI+AC+fO/vHNYSnEuD7f7oUmso4sBlu9WKf44N4Ff/
; 2+bObv99raEIMFdxOEmtn54SigXh89dukAO/AcETYoIl3XKqAAAAAElFTkSuQmCC
; thumbnail end
;

M82 ;absolute extrusion mode
G21 ; set units to millimeters
G90 ; use absolute positioning
M82 ; absolute extrusion mode
G92 E0.0 ; reset extruder distance position
G1 Y-3.0 F1000.0 ; go outside print area
G1 X60.0 E9.0 F1000.0 ; intro line
G1 X100.0 E21.5 F1000.0 ; intro line
G92 E0.0 ; reset extruder distance position
G92 E0
G92 E0
G1 F2100 E-0.8
;LAYER_COUNT:25
;LAYER:0
;MESH:Fijador.STL
G0 F2400 X87.485 Y81.787 Z0.3
;TYPE:WALL-OUTER
G1 F2100 E0
G1 F3023.4 X87.456 Y81.099 E0.68177
G1 F3037.6 X87.503 Y80.42 E1.3525
G1 F3043 X87.608 Y79.802 E1.96914
G1 F3043.4 X87.793 Y79.215 E2.5745
G1 F3038.4 X88.012 Y78.71 E3.1168
G1 F3037.6 X88.422 Y78.035 E3.89508
G1 F3036.8 X88.938 Y77.438 E4.67289
G1 F3037.2 X89.534 Y76.921 E5.4505
G1 F3039.9 X90.059 Y76.6 E6.05645
G1 F3041.4 X90.678 Y76.304 E6.73175
G1 F3044.5 X91.265 Y76.116 E7.33777
G1 F3044.1 X92.075 Y75.988 E8.14416
G1 F3039.1 X92.651 Y75.953 E8.71254
G1 F3026.5 X93.199 Y75.978 E9.25512
G0 F2400 X103.623 Y82.083
G0 X106.811 Y77.628
G1 X106.479 Y77.236 E9.89583
G1 X106.19 Y77.077 E10.30724
G1 X105.686 Y77.005 E10.94224
G1 X102.764 Y77.005 E14.58672
G1 X101.941 Y77.003 E15.61321
G1 X98.219 Y77.003 E20.2555
G1 X97.081 Y77.001 E21.67487
G1 X97.253 Y77.18 E21.9845
G1 X97.714 Y77.864 E23.0133
G1 X98.157 Y78.727 E24.22321
G1 X98.339 Y79.25 E24.91389
G1 X98.455 Y79.75 E25.55408
G1 X98.584 Y80.618 E26.64859
G1 X98.57 Y81.518 E27.77126
G1 X98.47 Y82.175 E28.60014
G1 X98.306 Y82.861 E29.47987
G1 X98.065 Y83.481 E30.30953
G1 X97.744 Y84.086 E31.16376
G1 X97.455 Y84.553 E31.84874
G1 X97.137 Y84.958 E32.49098
G1 X96.668 Y85.432 E33.32267
G1 X96.289 Y85.765 E33.95192
G1 X95.716 Y86.18 E34.83435
G1 X95.225 Y86.448 E35.53204
G1 X94.624 Y86.701 E36.34535
G1 X94.105 Y86.881 E37.0305
G1 X93.378 Y87.031 E37.95636
G1 X92.593 Y87.084 E38.93768
G1 X92.097 Y87.081 E39.55633
G1 X91.555 Y87.022 E40.23634
G1 X90.969 Y86.889 E40.98582
G1 X90.113 Y86.609 E42.10913
G1 X89.595 Y86.36 E42.82598
G1 X89.076 Y86.03 E43.59308
G1 X88.504 Y85.577 E44.50314
G1 X88.503 Y101.058 E63.81189
G1 X88.572 Y101.515 E64.38835
G1 X88.76 Y101.896 E64.91826
G1 X92.531 Y108.148 E74.02475
G1 X92.966 Y108.865 E75.07075
G1 X96.092 Y114.045 E82.61682
G1 X96.887 Y115.366 E84.53981
G1 F2515.7 X96.627 Y115.823 E85.16543
G1 F2783.6 X96.367 Y116.28 E85.73085
G1 F3115.3 X96.107 Y116.738 E86.2369
G1 F3486.3 X95.885 Y117.065 E86.57626
G1 F3689.5 X96.18 Y117.593 E87.06697
G1 F3703.7 X96.445 Y118.043 E87.48905
G1 F3700.8 X96.717 Y118.474 E87.90128
G1 F3689.5 X96.99 Y118.905 E88.31522
G1 F3681 X97.048 Y118.995 E88.40229
G1 F3424.2 X97.576 Y118.935 E88.86684
G1 F3008.6 X98.105 Y118.875 E89.39653
G1 F2683.1 X98.634 Y118.815 E89.9905
G1 F2470.4 X99.278 Y119.326 E90.98666
G1 F2400 X102.805 Y125.167 E99.49701
G1 X103.202 Y125.829 E100.45979
G1 X103.603 Y126.489 E101.42301
G1 X105.2 Y129.136 E105.27882
G1 X105.601 Y129.797 E106.24311
G1 X106.399 Y131.122 E108.1723
G1 X111.706 Y139.918 E120.98531
G1 X112.095 Y140.554 E121.91518
G1 X113.19 Y142.372 E124.56222
G1 X113.519 Y142.765 E125.20148
G1 X113.81 Y142.923 E125.61448
G1 X114.313 Y142.995 E126.24825
G1 X116.793 Y142.995 E129.34144
G1 X118.625 Y142.997 E131.62641
G1 X122.365 Y142.997 E136.29114
G1 X122.922 Y142.999 E136.98587
G1 X122.583 Y142.584 E137.65422
G1 X122.058 Y141.748 E138.88549
G1 X121.826 Y141.227 E139.59682
G1 X121.664 Y140.722 E140.2583
G1 X121.453 Y139.766 E141.47937
G1 X121.41 Y139.214 E142.16994
G1 X121.424 Y138.711 E142.79756
G1 X121.494 Y137.974 E143.72092
G1 X121.648 Y137.291 E144.59418
G1 X121.879 Y136.671 E145.41941
G1 X122.169 Y136.052 E146.27199
G1 X122.484 Y135.535 E147.02708
G1 X122.831 Y135.092 E147.72894
G1 X123.203 Y134.693 E148.40934
G1 X123.633 Y134.286 E149.1478
G1 X124.044 Y133.977 E149.78914
G1 X124.582 Y133.66 E150.56798
G1 X125.149 Y133.38 E151.35671
G1 X125.851 Y133.127 E152.28741
G1 X126.597 Y132.98 E153.23575
G1 X127.314 Y132.908 E154.13453
G1 X128.138 Y132.939 E155.163
G1 X128.926 Y133.071 E156.15953
G1 X129.572 Y133.279 E157.00599
G1 X130.643 Y133.773 E158.47705
G1 X131.356 Y134.294 E159.57847
G1 X131.496 Y134.416 E159.81008
G1 X131.496 Y119.012 E179.0228
G1 X131.446 Y118.537 E179.61852
G1 X131.24 Y118.104 E180.21658
G1 X123.907 Y105.955 E197.91579
G1 X123.511 Y105.294 E198.87685
G1 X123.112 Y104.634 E199.83878
G1 F2515.7 X123.373 Y104.177 E200.46499
G1 F2784.2 X123.634 Y103.719 E201.03174
G1 F3116.9 X123.895 Y103.261 E201.53801
G1 F3486.9 X124.116 Y102.935 E201.87612
G1 F3689.5 X123.819 Y102.406 E202.36834
G1 F3703.1 X123.555 Y101.958 E202.78868
G1 F3700.3 X123.283 Y101.526 E203.20165
G1 F3688.9 X123.01 Y101.094 E203.61634
G1 F3681 X122.952 Y101.005 E203.70273
G1 F3424.2 X122.424 Y101.065 E204.16728
G1 F3008.6 X121.895 Y101.125 E204.69697
G1 F2683.1 X121.366 Y101.185 E205.29094
G1 F2470.4 X120.723 Y100.673 E206.2869
G1 F2400 X120.322 Y100.013 E207.25012
G1 X106.811 Y77.628 E239.86138
G0 X106.682 Y77.476
G0 X103.56 Y82.097
G0 X101.791 Y97.015
G0 X104.343 Y101.44
G1 X107.498 Y99.618 E244.40551
G1 X108.185 Y99.289 E245.35557
G1 X108.753 Y99.105 E246.10025
G1 X109.398 Y98.984 E246.91876
G1 X110.114 Y98.949 E247.81286
G1 X110.888 Y99.027 E248.78313
G1 X111.696 Y99.243 E249.8263
G1 X112.502 Y99.618 E250.93507
G1 X117.742 Y102.644 E258.48217
G1 X118.216 Y102.954 E259.18858
G1 F2470.4 X118.465 Y103.533 E259.95229
G1 F2683.1 X118.211 Y103.965 E260.51139
G1 F3008.6 X117.956 Y104.398 E261.01136
G1 F3424.2 X117.701 Y104.831 E261.45065
G1 F3692.3 X118.014 Y105.301 E261.90845
G1 X118.283 Y105.796 E262.36518
G1 F3486.9 X118.649 Y105.753 E262.68155
G1 F3026.5 X119.381 Y105.801 E263.40711
G1 F2577.9 X120.113 Y105.849 E264.25892
G1 F2400 X120.211 Y106.414 E264.97415
G1 X120.241 Y106.975 E265.67486
G1 X120.241 Y113.025 E273.22075
G1 X120.154 Y113.96 E274.39197
G1 X119.915 Y114.803 E275.48485
G1 X119.568 Y115.532 E276.49185
G1 X119.153 Y116.142 E277.41205
G1 X118.671 Y116.665 E278.29914
G1 X118.152 Y117.091 E279.1366
G1 X117.149 Y117.698 E280.59885
G1 X113.245 Y119.952 E286.22143
G1 X112.424 Y120.427 E287.40446
G1 X111.817 Y120.711 E288.24031
G1 X111.248 Y120.895 E288.98618
G1 X110.603 Y121.017 E289.80493
G1 X109.886 Y121.052 E290.70027
G1 X109.112 Y120.973 E291.67066
G1 X108.304 Y120.756 E292.71416
G1 X107.498 Y120.382 E293.8224
G1 X102.258 Y117.356 E301.36951
G1 X101.784 Y117.045 E302.0766
G1 F2470.4 X101.535 Y116.467 E302.83919
G1 F2683.1 X101.789 Y116.035 E303.3983
G1 F3008.6 X102.044 Y115.602 E303.89826
G1 F3424.2 X102.299 Y115.169 E304.33755
G1 F3692.3 X101.987 Y114.699 E304.7949
G1 F3692.9 X101.717 Y114.204 E305.25195
G1 F3486.3 X101.349 Y114.248 E305.57017
G1 F3025.3 X100.618 Y114.2 E306.29502
G1 F2577.6 X99.887 Y114.151 E307.14584
G1 F2400 X99.789 Y113.586 E307.86107
G1 X99.759 Y113.025 E308.56178
G1 X99.759 Y106.975 E316.10767
G1 X99.846 Y106.041 E317.27765
G1 X100.084 Y105.198 E318.37018
G1 X100.432 Y104.469 E319.37772
G1 X100.847 Y103.859 E320.29793
G1 X101.33 Y103.334 E321.18769
G1 X101.85 Y102.907 E322.02691
G1 X102.4 Y102.562 E322.83669
G1 X103.391 Y101.991 E324.26322
G1 X104.343 Y101.44 E325.63514
G0 X104.516 Y101.34
G0 X101.964 Y96.915
G0 X97.41 Y95.168
;TYPE:WALL-INNER
G1 F3087.6 X97.826 Y94.967 E326.08306
G1 F3118.9 X98.309 Y94.731 E326.599
G1 F3151.7 X98.998 Y94.383 E327.33214
G1 F3178.4 X99.676 Y94.015 E328.05868
G1 F3186 X100.342 Y93.628 E328.7824
G1 F3175.4 X100.999 Y93.222 E329.51045
G1 F3150 X101.491 Y92.893 E330.07289
G1 F3118.1 X101.984 Y92.563 E330.64242
G1 F3073.8 X102.583 Y92.134 E331.35993
G1 F3023.8 X103 Y91.828 E331.87196
G1 F2965.9 X103.554 Y91.414 E332.56998
G1 F2884.3 X104.107 Y91.001 E333.2863
G1 F2100 E332.4863
G0 F2400 X105.408 Y95.042
G0 X120.653 Y121.46
G0 X122.594 Y124.824
G1 F2100 E333.2863
G1 F3092 X122.171 Y125.027 E333.74053
G1 F3127 X121.556 Y125.33 E334.39682
G1 F3152.5 X121.084 Y125.581 E334.90443
G1 F3168.3 X120.612 Y125.833 E335.40996
G1 F3180.1 X119.862 Y126.253 E336.21909
G1 F3176.7 X119.126 Y126.698 E337.02954
G1 F3151.3 X118.404 Y127.165 E337.84634
G1 F3104.8 X117.695 Y127.657 E338.67837
G1 F3039.5 X117 Y128.172 E339.53026
G1 F2975.5 X116.599 Y128.478 E340.03772
G1 F2891.6 X115.898 Y129.001 E340.94313
G0 F2400 X116.347 Y137.914
G0 X126.24 Y143.963
;TYPE:WALL-OUTER
G1 F2987.3 X126.795 Y144.003 E341.50071
G1 F3017.3 X127.351 Y144.043 E342.05372
G1 F3034.9 X127.546 Y144.034 E342.24626
G1 F3038.4 X128.285 Y143.98 E342.97627
G1 X129.065 Y143.791 E343.76697
G1 F3039.1 X129.595 Y143.576 E344.33031
G1 F3043.8 X130.137 Y143.291 E344.93255
G1 F3044.1 X130.64 Y142.932 E345.54022
G1 F3039.5 X131.064 Y142.562 E346.09443
G1 F3038.4 X131.58 Y141.964 E346.87259
G1 F3040.7 X131.819 Y141.578 E347.31954
G1 F3044.1 X132.175 Y140.873 E348.09616
G1 F3045.7 X132.371 Y140.277 E348.71279
G1 F3041.8 X132.492 Y139.634 E349.35667
G1 F3038 X132.546 Y138.924 E350.05827
G1 F3025.3 X132.515 Y138.287 E350.6893
G1 F2100 E349.8893
;MESH:NONMESH
;[CAZD:
;PRINTSPEED 100
;:CAZD]
G0 F600 X132.515 Y138.287 Z5.3
G0 F2400 X126.39 Y127.865
G0 X110.112 Y127.558
G0 X94.745 Y102.11
G0 X93.61 Y100.047
G1 F2100 E350.6893
G0 F2400 X88.5 Y101.059
;TIME_ELAPSED:18.321720
;LAYER:1
;TYPE:WALL-OUTER
;MESH:Fijador.STL
G1 X88.5 Y85.594 E672.16929
G1 X88.864 Y85.914 E682.24421
G1 X89.742 Y86.457 E703.70414
G1 X90.705 Y86.844 E725.27859
G1 X91.732 Y87.067 E747.12493
G1 X92.765 Y87.107 E768.61459
G1 X93.781 Y86.979 E789.90173
G1 X94.773 Y86.675 E811.46959
G1 X95.711 Y86.206 E833.26986
G1 X96.548 Y85.581 E854.98462
G1 X97.263 Y84.834 E876.47976
G1 X97.841 Y83.975 E898.00234
G1 X98.27 Y83.023 E919.70865
G1 X98.529 Y82.016 E941.32304
G1 X98.614 Y81.003 E962.45487
G1 X98.529 Y79.975 E983.89743
G1 X98.263 Y78.954 E1005.83002
G1 X97.832 Y78.01 E1027.40206
G1 X97.255 Y77.155 E1048.84407
G1 X97.105 Y77 E1053.32788
G1 X105.696 Y77 E1231.91401
G1 X106.202 Y77.072 E1242.53848
G1 X106.498 Y77.239 E1249.60336
G1 X106.816 Y77.628 E1260.04785
G1 X131.281 Y118.168 E2244.34114
G1 X131.454 Y118.542 E2252.90717
G1 X131.5 Y118.934 E2261.11181
G1 X131.5 Y134.384 E2582.27999
G1 X130.716 Y133.796 E2602.65182
G1 X129.773 Y133.325 E2624.56365
G1 X128.781 Y133.021 E2646.13151
G1 X127.765 Y132.893 E2667.41865
G1 X126.732 Y132.933 E2688.90831
G1 X125.705 Y133.156 E2710.75465
G1 X124.751 Y133.54 E2732.13225
G1 X123.871 Y134.079 E2753.584
G1 X123.095 Y134.762 E2775.07343
G1 X122.432 Y135.576 E2796.89708
G1 X121.923 Y136.495 E2818.73534
G1 X121.585 Y137.461 E2840.00989
G1 X121.408 Y138.476 E2861.4277
G1 X121.408 Y139.524 E2883.21309
G1 X121.585 Y140.539 E2904.6309
G1 X121.925 Y141.511 E2926.0369
G1 X122.432 Y142.421 E2947.69143
G1 X122.901 Y143 E2963.18065
G1 X114.304 Y143 E3141.89151
G1 X113.798 Y142.928 E3152.51598
G1 X113.502 Y142.761 E3159.58086
G1 X113.184 Y142.372 E3170.02535
G1 X88.719 Y101.832 E4154.31864
G1 X88.546 Y101.458 E4162.88466
G92 E0
G1 X88.5 Y101.059 E8.34919
G0 F2100 X93.606 Y100.048
G0 X97.207 Y99.661
G0 X99.76 Y104.087
G1 F2400 X99.76 Y115.913 E254.18316
G1 X110 Y121.823 E499.95685
G1 X120.24 Y115.913 E745.73055
G1 X120.24 Y104.087 E991.56452
G1 X110 Y98.177 E1237.33822
G1 X99.76 Y104.087 E1483.11191
G0 F2100 X88.5 Y101.059
G1 F2400 X88.5 Y85.594 Z5.721 E1804.711
G1 X88.866 Y85.911 Z5.734 E1814.77988
G1 X89.744 Y86.453 Z5.762 E1836.23677
G1 X90.705 Y86.842 Z5.79 E1857.79607
G1 X91.733 Y87.061 Z5.819 E1879.65357
G1 X92.764 Y87.109 Z5.847 E1901.11667
G1 X93.78 Y86.976 Z5.875 E1922.425
G1 X94.772 Y86.672 Z5.903 E1944.00071
G1 X95.707 Y86.2 Z5.932 E1965.7816
G1 X96.547 Y85.581 Z5.96 E1987.47994
G1 X97.26 Y84.832 Z5.988 E2008.98433
G1 X97.84 Y83.975 Z6.016 E2030.50358
G1 X98.268 Y83.023 Z6.045 E2052.20973
G1 X98.529 Y82.017 Z6.073 E2073.82223
G1 X98.61 Y81.003 Z6.101 E2094.976
G1 X98.526 Y79.976 Z6.129 E2116.40404
G1 X98.259 Y78.956 Z6.157 E2138.32951
G1 X97.83 Y78.012 Z6.185 E2159.89216
G1 X97.252 Y77.158 Z6.214 E2181.33706
G1 X97.106 Y77 Z6.219 E2185.81026
G1 X105.696 Y77 Z6.453 E2364.44185
G1 X106.202 Y77.072 Z6.467 E2375.07031
G1 X106.498 Y77.239 Z6.476 E2382.13766
G1 X106.816 Y77.628 Z6.49 E2392.58621
G1 X131.281 Y118.168 Z7.778 E3377.24358
G1 X131.454 Y118.542 Z7.789 E3385.81266
G1 X131.5 Y118.934 Z7.8 E3394.02049
G1 X131.5 Y134.383 Z8.22 E3715.28654
G1 X130.715 Y133.798 Z8.247 E3735.64542
G1 X129.772 Y133.328 Z8.276 E3757.55626
G1 X128.781 Y133.022 Z8.304 E3779.12433
G1 X127.765 Y132.895 Z8.332 E3800.41683
G1 X126.733 Y132.935 Z8.36 E3821.89362
G1 X125.706 Y133.156 Z8.389 E3843.73949
G1 X124.752 Y133.541 Z8.417 E3865.13278
G1 X123.872 Y134.081 Z8.445 E3886.60329
G1 X123.097 Y134.763 Z8.473 E3908.07127
G1 X122.434 Y135.578 Z8.501 E3929.91879
G1 X121.924 Y136.495 Z8.53 E3951.73912
G1 X121.586 Y137.461 Z8.558 E3973.02163
G1 X121.41 Y138.476 Z8.586 E3994.44379
G1 X121.41 Y139.523 Z8.614 E4016.21617
G1 X121.584 Y140.539 Z8.642 E4037.65175
G1 X121.926 Y141.51 Z8.67 E4059.05982
G1 X122.433 Y142.42 Z8.699 E4080.72274
G1 X122.901 Y143 Z8.719 E4096.22063
G1 X114.304 Y143 Z8.953 E4274.99768
G92 E0
G1 X113.798 Y142.928 Z8.967 E10.62845
G1 X113.502 Y142.761 Z8.976 E17.6958
G1 X113.184 Y142.372 Z8.99 E28.14435
G1 X88.719 Y101.832 Z10.278 E1012.80173
G1 X88.546 Y101.458 Z10.289 E1021.37081
G1 X88.5 Y101.059 Z10.3 E1029.72312
G1 X105.512 Y124.532 Z6.771 E1636.79309
G1 X124.011 Y113.637 Z7.861 E2083.65467
G1 X120.983 Y103.638 Z8.392 E2301.11182
G1 X111.795 Y97.093 Z8.964 E2535.9136
G1 X98.817 Y104.657 Z9.727 E2848.57486
G1 X99.76 Y115.913 Z10.3 E3083.68154
;MESH:NONMESH
G0 F2100 X94.724 Y102.033
G0 X93.606 Y100.048
G0 X88.5 Y101.059
;TIME_ELAPSED:182.923845
;LAYER:2
;TYPE:WALL-OUTER
;MESH:Fijador.STL
G1 F1098.6 X115.02 Y120.702 Z14.893 E3776.33355
G1 X114.356 Y119.318 Z15.107 E3808.55194
G1 X115.555 Y118.617 Z15.3 E3837.70093
G0 F1800 X88.5 Y101.059
G1 F1098.6 X106.854 Y99.952 Z14.043 E4220.8217
G92 E0
G1 X103.479 Y101.966 Z14.843 E83.37563
G1 X104.123 Y99.815 Z15.3 E131.00772
G1 F2100 E130.20772
;MESH:NONMESH
G0 F1800 X115.555 Y118.617
;TIME_ELAPSED:229.196951
;LAYER:3
;TYPE:WALL-OUTER
;MESH:Fijador.STL
G1 F2100 E131.00772
G1 F600 X115.124 Y118.874 Z19.949 E228.21055
G1 X115.118 Y118.87 Z20.016 E229.61136
G1 X115.123 Y118.866 Z20.075 E230.84503
G1 X115.125 Y118.875 E231.0271
G1 X115.118 Y118.869 E231.20917
G1 X115.123 Y118.866 E231.32432
G0 F1800 X115.555 Y118.617
G1 F600 X104.882 Y101.131 Z20.29 E657.20066
G1 X104.877 Y101.134 Z20.292 E657.32881
G1 X104.875 Y101.125 Z20.294 E657.52492
G1 X104.882 Y101.131 E657.70699
G1 X104.877 Y101.134 E657.82214
G1 X104.875 Y101.125 E658.00421
;TIME_ELAPSED:233.690486
G1 F2100 E657.20421
G1 X0 Y210; home X axis and push Y forward
M82 ;absolute extrusion mode
;End of Gcode
;SETTING_3 {"global_quality": "[general]\\nversion = 4\\nname = UTN CEMENTO\\nde
;SETTING_3 finition = prusa_i3_mk2\\n\\n[metadata]\\ntype = quality_changes\\nqu
;SETTING_3 ality_type = normal\\nsetting_version = 20\\n\\n[values]\\nadhesion_t
;SETTING_3 ype = none\\nlayer_height = 5\\nlayer_height_0 = 0.3\\nmagic_spiraliz
;SETTING_3 e = True\\nmaterial_bed_temperature = 23\\nsupport_type = buildplate\
;SETTING_3 \n\\n", "extruder_quality": ["[general]\\nversion = 4\\nname = UTN CE
;SETTING_3 MENTO\\ndefinition = prusa_i3_mk2\\n\\n[metadata]\\ntype = quality_ch
;SETTING_3 anges\\nquality_type = normal\\nintent_category = default\\nposition 
;SETTING_3 = 0\\nsetting_version = 20\\n\\n[values]\\ninfill_line_width = 10\\ni
;SETTING_3 nfill_pattern = lines\\ninfill_sparse_density = 100\\nline_width = 0.
;SETTING_3 8\\nmaterial_print_temperature = 231\\nskirt_line_count = 4\\nspeed_l
;SETTING_3 ayer_0 = 40\\nspeed_print = 30\\nspeed_wall = 40\\nsupport_infill_rat
;SETTING_3 e = 10\\nsupport_pattern = cross\\nsupport_xy_distance = 1.2\\nsuppor
;SETTING_3 t_z_distance = 0.35\\ntop_bottom_thickness = 5\\nwall_line_count = 1\
;SETTING_3 \nwall_line_width = 10\\nwall_thickness = =wall_line_width_0 if magic
;SETTING_3 _spiralize else 0.8\\nxy_offset = 1\\nz_seam_type = shortest\\n\\n"]}
