;FLAVOR:Marlin
;TIME:513
;Filament used: 31.6443m
;Layer height: 5
;MINX:89.015
;MINY:89.001
;MINZ:0.3
;MAXX:130.985
;MAXY:130.993
;MAXZ:53.023
;POSTPROCESSED
;Generated with Cura_SteamEngine 5.0.0
;
; thumbnail begin 32 32 1544
; iVBORw0KGgoAAAANSUhEUgAAACAAAAAgCAYAAABzenr0AAAACXBIWXMAAA7EAAAOxAGVKw4bAAAEOE
; lEQVRYhaVXz2slRRD+qmfyzMsz7i8x6lG9RATxIHiUhT3oQTyo/4DgXkQQPCgI6kX0Iqggu4g3D0pu
; gkqOi6x7ERXEFXWJossibMLuzuTlJS9T9Xno6Tc9v14SbWhmpl931VdVX1XXE8wZb7xwz9LxkyceE+
; OjBFYBuQ/AvSBOATxGEQl7RZgJsUXgHxH5g+RliHyf7EwvvvThlaxPh3Qtvv/a6pNCOQvgDIDhPJCH
; GPsALjjHT+76/Ze159agvQDee/nBk4MlrIFyWjp3/IfB6iHCH9ICT5999/Jf4ec03rs0kncgOP0/Vc
; 4Z8ggHOA/giU4A12/qyt2n0tax6vwRdLF7efOmrsTfLv649NMk27pVwDkiSdCe7gizdZbIdxSXft6t
; EbJmbqHIr20qhosOJ5YdnABqwZSjksGfc05AEre2iWubiunUtnsBqDE3A1QJJ8DxZYflkYP436AKFE
; oU5TMeSSJYSMpnCjgRmBGTPeJGbjADzAAS/R5QY2YkjICRIIFEgNHQYXEguK2ciQPSRBCqgBGwEuDu
; lNhXYmeXyMc2k2P0RpCSxzprHChU8gipn/BgrHxnJJAHTWC210ioeS/3esCUWUBqkXJSSsXSUgBU34
; ZKaX2WoI0wshaCmgeUzLXpgWAtDvFeO8PIei9TDSh0jgdgkpuxJExAjdqzZn2ocqWyCgjr1kcyrAGg
; 5gHQMtUKdU1QK/4EwWoPIoUEaBFB6a03I7Rw/VkwLTTTpqVhdqwHJ8TgYrfHa2olCWn9ALI9l3sCVq
; lYCWsqqgpTN8AYEL31ngz9JCQnWaGeA7SYWOxhd5uMdS7UOWQGmLh+Dmxs3MhVmyyuk3IekDYID9ys
; 4sF4v5hDQsDUOG4VGVQemFnUSD0jQGPPb94IVWB7e6c/BABgQMYQ+1ATWiEJMY5nTDw/w7f3AFEocf
; VqNtcDYIE8uDwmX8zqluURTwzN9epdDbvwLdpstLoPJfPmYbO44hEuzgLpZn4Vigi0IW/qa7c/lDzc
; BRYLjEC0K2GbH7OwRWE0sNUdtwAYfQiCUl8LGpcRqkJUnulMRV8pa5482ANGZuFCqpEOIc4yEyg+Ap
; 11YUbikAUETA8DwJjPcp4h/70XZkId4CIX1MIUZUUNlK+wh+LAllpMIOltPgDU7oJmmsapbAYAvN5U
; 10rDhcTWzcAuK2jdN2DFge5uKXRDC6lbPxDA+sW/v0kczlksuJmSPR6pilV1iYVMco5ffHXhz88OBA
; AA5z6/8qITvEXDfrdFbXCzfYhAev6YE/nozungWcwStxpzm/2PX39odXQ7Xh0Nk2dGQ1kaDgQLqSBN
; pdYVk1XLPi2A3T3DeMLpZE+/3N7Zf/v5N3/9rk/Hof5tfPrBA3esLC6dGQ6SxxdSeThNcH+ayIoIEg
; Cg0dSwWSg2ioI/Tqb4dpyNv37qld82D5L9L4ZKLeeGRf+lAAAAAElFTkSuQmCC
; thumbnail end
;

M82 ;absolute extrusion mode
G21 ; set units to millimeters
G90 ; use absolute positioning
M82 ; absolute extrusion mode
M104 S231 ; set extruder temp
M140 S23 ; set bed temp
M190 S23 ; wait for bed temp
M109 S231 ; wait for extruder temp
G28 W ; home all without mesh bed level
G80 ; mesh bed leveling
G92 E0.0 ; reset extruder distance position
G1 Y-3.0 F1000.0 ; go outside print area
G1 X60.0 E9.0 F1000.0 ; intro line
G1 X100.0 E21.5 F1000.0 ; intro line
G92 E0.0 ; reset extruder distance position
G92 E0
G92 E0
G1 F2100 E-0.8
;LAYER_COUNT:11
;LAYER:0
M107
;MESH:Probeta Cilindrica de 50mm.STL
G0 F2400 X99.671 Y91.726 Z0.3
;TYPE:WALL-OUTER
G1 F2100 E0
G1 F2400 X97.663 Y93.018 E2.97813
G1 X95.805 Y94.535 E5.96984
G1 X94.133 Y96.255 E8.96169
G1 X92.675 Y98.147 E11.94088
G1 X91.43 Y100.212 E14.94836
G1 X90.436 Y102.389 E17.93328
G1 X89.699 Y104.663 E20.91478
G1 X89.222 Y107.009 E23.90071
G1 X89.017 Y109.407 E26.90254
G1 X89.084 Y111.792 E29.87841
G1 X89.425 Y114.156 E32.85744
G1 X90.038 Y116.5 E35.87933
G1 X90.905 Y118.719 E38.85074
G1 X91.998 Y120.793 E41.77478
G1 X93.384 Y122.826 E44.84366
G1 X94.945 Y124.627 E47.8163
G1 X96.71 Y126.247 E50.80441
G1 X98.651 Y127.659 E53.79814
G1 X100.737 Y128.837 E56.78611
G1 X102.952 Y129.772 E59.78483
G1 X105.242 Y130.444 E62.76149
G1 X107.606 Y130.854 E65.75401
G1 X109.999 Y130.992 E68.74366
G1 X112.392 Y130.855 E71.73322
G1 X114.758 Y130.445 E74.72821
G1 X117.003 Y129.787 E77.64609
G1 X119.266 Y128.835 E80.70821
G1 X121.303 Y127.686 E83.62518
G1 X123.293 Y126.244 E86.69035
G1 X125.054 Y124.627 E89.67226
G1 X126.619 Y122.822 E92.65194
G1 X127.979 Y120.833 E95.6572
G1 X129.094 Y118.72 E98.63707
G1 X129.967 Y116.481 E101.63444
G1 X130.574 Y114.161 E104.62548
G1 X130.914 Y111.794 E107.60803
G1 X130.984 Y109.407 E110.58651
G1 X130.778 Y107.012 E113.58471
G1 X130.289 Y104.627 E116.6213
G1 X129.561 Y102.383 E119.56374
G1 X128.57 Y100.212 E122.5403
G1 X127.325 Y98.147 E125.54778
G1 X125.867 Y96.255 E128.52698
G1 X124.195 Y94.535 E131.51882
G1 X122.341 Y93.021 E134.5043
G1 X120.327 Y91.726 E137.49075
G1 X118.156 Y90.658 E140.50845
G1 X115.917 Y89.862 E143.47229
G1 X113.584 Y89.318 E146.46019
G1 X111.178 Y89.04 E149.48105
G1 X110.019 Y89.004 E150.92732
G1 X108.9 Y89.035 E152.32353
G1 X106.425 Y89.315 E155.43018
G1 X104.094 Y89.858 E158.41537
G1 X101.836 Y90.662 E161.40488
G1 X99.671 Y91.726 E164.41367
G0 X99.503 Y91.834
G0 X102.191 Y96.178
G0 X102.575 Y101.915
;TYPE:WALL-INNER
G1 X101.702 Y102.814 E165.97664
G1 X100.944 Y103.798 E167.52586
G1 X100.289 Y104.885 E169.10874
G1 X99.771 Y106.02 E170.66484
G1 X99.385 Y107.207 E172.22164
G1 X99.135 Y108.438 E173.78835
G1 X99.028 Y109.692 E175.3581
G1 X99.063 Y110.935 E176.90905
G1 X99.241 Y112.171 E178.46656
G1 X99.564 Y113.404 E180.05632
G1 X100.013 Y114.556 E181.59843
G1 X100.58 Y115.63 E183.1132
G1 X101.32 Y116.716 E184.75228
G1 X102.127 Y117.647 E186.289
G1 X103.052 Y118.496 E187.855
G1 X104.067 Y119.234 E189.42023
G1 X105.157 Y119.849 E190.9812
G1 X105.732 Y120.092 E191.75979
G1 X106.316 Y120.339 E192.55065
G1 X107.511 Y120.689 E194.10374
G1 X108.749 Y120.904 E195.67095
G1 X109.999 Y120.976 E197.2326
G1 X111.25 Y120.905 E198.79543
G1 X112.492 Y120.689 E200.36777
G1 X113.648 Y120.351 E201.86997
G1 X114.856 Y119.842 E203.50494
G1 X115.896 Y119.255 E204.99444
G1 X116.424 Y118.874 E205.80654
G1 X116.958 Y118.486 E206.62982
G1 X117.872 Y117.648 E208.17644
G1 X118.689 Y116.704 E209.73358
G1 X119.402 Y115.662 E211.30835
G1 X119.984 Y114.559 E212.86384
G1 X120.441 Y113.388 E214.43166
G1 X120.757 Y112.177 E215.99266
G1 X120.935 Y110.936 E217.55634
G1 X120.972 Y109.692 E219.10861
G1 X120.865 Y108.449 E220.66469
G1 X120.605 Y107.18 E222.28033
G1 X120.227 Y106.014 E223.80914
G1 X119.711 Y104.884 E225.35853
G1 X119.056 Y103.798 E226.94034
G1 X118.298 Y102.814 E228.48956
G1 X117.425 Y101.915 E230.05253
G1 X116.455 Y101.124 E231.61364
G1 X115.399 Y100.446 E233.17884
G1 X114.26 Y99.885 E234.76243
G1 X113.098 Y99.472 E236.30056
G1 X111.874 Y99.186 E237.86832
G1 X110.448 Y99.021 E239.65878
G1 X109.836 Y99.012 E240.42218
G1 X109.332 Y99.049 E241.05249
G1 X108.764 Y99.113 E241.76541
G1 X108.127 Y99.185 E242.56497
G1 X106.913 Y99.468 E244.11974
G1 X106.333 Y99.673 E244.887
G1 X105.731 Y99.889 E245.68472
G1 X104.596 Y100.447 E247.26218
G1 X103.548 Y101.121 E248.81629
G1 X102.575 Y101.915 E250.38266
G0 X112.984 Y109.919
M104 S231
G1 F4029.6 X112.919 Y109.415 E250.76017
G1 X112.779 Y108.911 E251.14875
G1 X112.551 Y108.458 E251.52549
G1 X112.259 Y108.047 E251.90001
G1 X111.894 Y107.698 E252.27516
G1 X111.467 Y107.403 E252.6607
G1 X110.999 Y107.192 E253.04207
G1 X110.509 Y107.06 E253.41905
G1 X110.007 Y107.002 E253.79445
G1 X109.485 Y107.06 E254.18461
G1 X109.001 Y107.193 E254.55748
G1 X108.526 Y107.405 E254.94389
G1 X108.113 Y107.693 E255.31793
G1 X107.741 Y108.047 E255.6994
G1 X107.449 Y108.458 E256.07393
G1 X107.219 Y108.916 E256.45465
G1 X107.081 Y109.4 E256.82853
G1 X107.016 Y109.919 E257.21709
G1 X107.049 Y110.421 E257.59081
G1 X107.165 Y110.935 E257.98225
G1 X107.426 Y111.511 E258.45201
G1 X107.756 Y111.96 E258.86596
G1 X108.113 Y112.311 E259.23787
G1 X108.536 Y112.596 E259.61677
G1 X109.001 Y112.812 E259.99766
G1 X109.49 Y112.935 E260.37223
G1 X109.999 Y112.985 E260.75217
G1 X110.503 Y112.938 E261.1282
G1 X110.971 Y112.822 E261.48638
G1 X111.462 Y112.597 E261.8876
G1 X111.904 Y112.296 E262.28485
G1 X112.363 Y111.823 E262.77447
G1 X112.638 Y111.386 E263.15803
G1 X112.84 Y110.92 E263.53533
G1 X112.949 Y110.429 E263.90896
G1 X112.984 Y109.919 E264.28871
;MESH:NONMESH
;[CAZD:
M221 S100
M221 S100 T0
M221 S100 T1
M220 S100
;PRINTSPEED 100
M207 S0.0
;:CAZD]
M117 Extruder A Flow Rate: 100, Extruder 1 Flow Rate: 100, Extruder 2 Flow Rate: 100, Print Speed: 100, Linear Print Speed: 100, Retract Length: 0.0
G0 F600 X112.984 Y109.919 Z5.3
G0 F2400 X98.002 Y99.603
G0 X94.135 Y96.251
;TIME_ELAPSED:12.509337
;LAYER:1
M106 S255
;MESH:Probeta Cilindrica de 50mm.STL
G0 F2100 X98.002 Y99.603
G0 X95.952 Y102.603
G0 X91.428 Y100.211
;TYPE:WALL-OUTER
G1 F2400 X92.674 Y98.145 E314.44184
G1 X94.135 Y96.251 E364.16615
G1 X95.802 Y94.536 E413.88332
G1 X97.661 Y93.016 E463.80071
G1 X99.676 Y91.721 E513.59229
G1 X101.834 Y90.66 E563.58064
G1 X104.083 Y89.858 E613.21557
G1 X106.42 Y89.314 E663.09496
G1 X108.862 Y89.034 E714.19084
G1 X110 Y89.001 E737.85706
G1 X111.138 Y89.034 E761.52327
G1 X113.58 Y89.314 E812.61916
G1 X115.917 Y89.858 E862.49855
G1 X118.166 Y90.66 E912.13348
G1 X120.324 Y91.721 E962.12183
G1 X122.339 Y93.016 E1011.91341
G1 X124.198 Y94.536 E1061.8308
G1 X125.865 Y96.251 E1111.54797
G1 X127.326 Y98.145 E1161.27227
G1 X128.572 Y100.211 E1211.42541
G1 X129.563 Y102.383 E1261.05362
G1 X130.305 Y104.665 E1310.93555
G1 X130.779 Y107.003 E1360.52568
G1 X130.985 Y109.409 E1410.72359
G1 X130.917 Y111.796 E1460.36369
G1 X130.577 Y114.161 E1510.03177
G1 X129.964 Y116.492 E1560.13515
G1 X129.096 Y118.722 E1609.8793
G1 X127.979 Y120.839 E1659.63671
G1 X126.622 Y122.823 E1709.60353
G1 X125.058 Y124.627 E1759.23543
G1 X123.288 Y126.253 E1809.19824
G1 X121.347 Y127.663 E1859.0693
G1 X119.269 Y128.837 E1908.68313
G1 X117.049 Y129.774 E1958.77374
G1 X114.761 Y130.446 E2008.34473
G1 X112.392 Y130.856 E2058.3226
G1 X110 Y130.993 E2108.12799
G1 X107.608 Y130.856 E2157.93338
G1 X105.239 Y130.446 E2207.91126
G1 X102.951 Y129.774 E2257.48225
G1 X100.731 Y128.837 E2307.57286
G1 X98.653 Y127.663 E2357.18669
G1 X96.712 Y126.253 E2407.05775
G1 X94.942 Y124.627 E2457.02055
G1 X93.378 Y122.823 E2506.65246
G1 X92.021 Y120.839 E2556.61928
G1 X90.904 Y118.722 E2606.37669
G1 X90.036 Y116.492 E2656.12083
G1 X89.423 Y114.161 E2706.22422
G1 X89.083 Y111.796 E2755.8923
G1 X89.015 Y109.409 E2805.53239
G1 X89.221 Y107.003 E2855.73031
G1 X89.695 Y104.665 E2905.32044
G1 X90.437 Y102.383 E2955.20236
G1 X91.428 Y100.211 E3004.83058
G0 F2100 X94.135 Y96.251
G1 F2400 X95.802 Y94.536 Z5.391 E3054.58372
G1 X97.661 Y93.016 Z5.482 E3104.53695
G1 X99.676 Y91.721 Z5.573 E3154.36445
G1 X101.834 Y90.66 Z5.664 E3204.38858
G1 X104.083 Y89.858 Z5.754 E3254.05875
G1 X106.42 Y89.315 Z5.845 E3303.9693
G1 X108.862 Y89.035 Z5.939 E3355.10253
G1 X110 Y89.001 Z5.982 E3378.78623
G1 X111.138 Y89.034 Z6.025 E3402.46932
G1 X113.58 Y89.314 Z6.118 E3453.60176
G1 X115.917 Y89.858 Z6.209 E3503.51702
G1 X118.166 Y90.66 Z6.3 E3553.18798
G1 X120.324 Y91.721 Z6.391 E3603.2121
G1 X122.339 Y93.016 Z6.482 E3653.03961
G1 X124.198 Y94.536 Z6.573 E3702.99283
G1 X125.865 Y96.251 Z6.664 E3752.74597
G1 X127.326 Y98.145 Z6.754 E3802.50546
G1 X128.572 Y100.211 Z6.846 E3852.69504
G1 X129.563 Y102.383 Z6.936 E3902.35852
G1 X130.305 Y104.665 Z7.027 E3952.27629
G1 X130.779 Y107.003 Z7.118 E4001.90249
G1 X130.985 Y109.409 Z7.209 E4052.13604
G1 X130.917 Y111.796 Z7.3 E4101.81216
G1 X130.577 Y114.161 Z7.391 E4151.51625
G1 X129.964 Y116.492 Z7.482 E4201.65533
G92 E0
G1 X129.096 Y118.722 Z7.573 E49.7801
G1 X127.979 Y120.839 Z7.664 E99.57346
G1 X126.622 Y122.823 Z7.755 E149.57607
G1 X125.058 Y124.627 Z7.845 E199.24323
G1 X123.288 Y126.253 Z7.936 E249.24183
G1 X121.347 Y127.663 Z8.027 E299.14875
G1 X119.269 Y128.837 Z8.118 E348.79863
G1 X117.049 Y129.774 Z8.209 E398.92495
G1 X114.761 Y130.446 Z8.3 E448.53202
G1 X112.392 Y130.856 Z8.391 E498.54568
G1 X110 Y130.993 Z8.482 E548.38698
G1 X107.608 Y130.856 Z8.573 E598.22828
G1 X105.239 Y130.446 Z8.664 E648.24194
G1 X102.951 Y129.774 Z8.754 E697.84823
G1 X100.731 Y128.837 Z8.846 E747.97534
G1 X98.653 Y127.663 Z8.936 E797.62443
G1 X96.712 Y126.253 Z9.027 E847.53135
G1 X94.942 Y124.627 Z9.118 E897.52995
G1 X93.378 Y122.823 Z9.209 E947.19789
G1 X92.021 Y120.839 Z9.3 E997.20051
G1 X90.904 Y118.722 Z9.391 E1046.99386
G1 X90.036 Y116.492 Z9.482 E1096.77397
G1 X89.423 Y114.161 Z9.573 E1146.91305
G1 X89.083 Y111.796 Z9.664 E1196.61714
G1 X89.015 Y109.409 Z9.754 E1246.29248
G1 X89.221 Y107.003 Z9.846 E1296.52681
G1 X89.695 Y104.665 Z9.936 E1346.15222
G1 X90.437 Y102.383 Z10.027 E1396.07
G1 X91.428 Y100.211 Z10.118 E1445.73426
G1 X92.674 Y98.145 Z10.209 E1495.92305
G1 X94.135 Y96.251 Z10.3 E1545.68332
;TIME_ELAPSED:93.028050
;LAYER:2
;TYPE:WALL-OUTER
;MESH:Probeta Cilindrica de 50mm.STL
G1 F1582 X95.802 Y94.536 Z10.391 E1595.43647
G1 X97.661 Y93.016 Z10.482 E1645.38969
G1 X99.676 Y91.721 Z10.573 E1695.21719
G1 X101.834 Y90.66 Z10.664 E1745.24132
G1 X104.083 Y89.858 Z10.754 E1794.91149
G1 X106.42 Y89.314 Z10.845 E1844.82675
G1 X108.862 Y89.034 Z10.939 E1895.95998
G1 X110 Y89.001 Z10.982 E1919.64307
G1 X111.138 Y89.034 Z11.025 E1943.32616
G1 X113.58 Y89.314 Z11.118 E1994.4586
G1 X115.917 Y89.858 Z11.209 E2044.37386
G1 X118.166 Y90.66 Z11.3 E2094.04481
G1 X120.324 Y91.721 Z11.391 E2144.06894
G1 X122.339 Y93.016 Z11.482 E2193.89644
G1 X124.198 Y94.536 Z11.573 E2243.84967
G1 X125.865 Y96.251 Z11.664 E2293.60281
G1 X127.326 Y98.145 Z11.754 E2343.3623
G1 X128.572 Y100.211 Z11.846 E2393.55188
G1 X129.563 Y102.383 Z11.936 E2443.21535
G1 X130.305 Y104.665 Z12.027 E2493.13313
G1 X130.779 Y107.003 Z12.118 E2542.75933
G1 X130.985 Y109.409 Z12.209 E2592.99287
G1 X130.917 Y111.796 Z12.3 E2642.669
G1 X130.577 Y114.161 Z12.391 E2692.37309
G1 X129.964 Y116.492 Z12.482 E2742.51217
G1 X129.096 Y118.722 Z12.573 E2792.29227
G1 X127.979 Y120.839 Z12.664 E2842.08563
G1 X126.622 Y122.823 Z12.755 E2892.08824
G1 X125.058 Y124.627 Z12.845 E2941.7554
G1 X123.288 Y126.253 Z12.936 E2991.754
G1 X121.347 Y127.663 Z13.027 E3041.66092
G1 X119.269 Y128.837 Z13.118 E3091.3108
G1 X117.049 Y129.774 Z13.209 E3141.43712
G1 X114.761 Y130.446 Z13.3 E3191.04419
G1 X112.392 Y130.856 Z13.391 E3241.05785
G1 X110 Y130.993 Z13.482 E3290.89915
G1 X107.608 Y130.856 Z13.573 E3340.74046
G1 X105.239 Y130.446 Z13.664 E3390.75411
G1 X102.951 Y129.774 Z13.754 E3440.3604
G1 X100.731 Y128.837 Z13.846 E3490.48751
G1 X98.653 Y127.663 Z13.936 E3540.1366
G1 X96.712 Y126.253 Z14.027 E3590.04352
G1 X94.942 Y124.627 Z14.118 E3640.04212
G1 X93.378 Y122.823 Z14.209 E3689.71007
G1 X92.021 Y120.839 Z14.3 E3739.71268
G1 X90.904 Y118.722 Z14.391 E3789.50604
G1 X90.036 Y116.492 Z14.482 E3839.28614
G1 X89.423 Y114.161 Z14.573 E3889.42522
G1 X89.083 Y111.796 Z14.664 E3939.12931
G1 X89.015 Y109.409 Z14.754 E3988.80465
G1 X89.221 Y107.003 Z14.846 E4039.03898
G1 X89.695 Y104.665 Z14.936 E4088.66439
G1 X90.437 Y102.383 Z15.027 E4138.58217
G1 X91.428 Y100.211 Z15.118 E4188.24643
G92 E0
G1 X92.674 Y98.145 Z15.209 E50.18879
G1 X94.135 Y96.251 Z15.3 E99.94907
;TIME_ELAPSED:149.949029
;LAYER:3
;TYPE:WALL-OUTER
;MESH:Probeta Cilindrica de 50mm.STL
G1 X95.802 Y94.536 Z15.391 E149.70221
G1 X97.661 Y93.016 Z15.482 E199.65544
G1 X99.676 Y91.721 Z15.573 E249.48294
G1 X101.834 Y90.66 Z15.664 E299.50707
G1 X104.083 Y89.858 Z15.754 E349.17724
G1 X106.42 Y89.314 Z15.845 E399.09249
G1 X108.862 Y89.034 Z15.939 E450.22572
G1 X110 Y89.001 Z15.982 E473.90881
G1 X111.138 Y89.034 Z16.025 E497.5919
G1 X113.58 Y89.314 Z16.118 E548.72435
G1 X115.917 Y89.858 Z16.209 E598.6396
G1 X118.166 Y90.66 Z16.3 E648.31056
G1 X120.324 Y91.721 Z16.391 E698.33469
G1 X122.339 Y93.016 Z16.482 E748.16219
G1 X124.198 Y94.536 Z16.573 E798.11541
G1 X125.865 Y96.251 Z16.664 E847.86856
G1 X127.326 Y98.145 Z16.754 E897.62804
G1 X128.572 Y100.211 Z16.846 E947.81763
G1 X129.563 Y102.383 Z16.936 E997.4811
G1 X130.305 Y104.665 Z17.027 E1047.39887
G1 X130.779 Y107.003 Z17.118 E1097.02507
G1 X130.985 Y109.409 Z17.209 E1147.25862
G1 X130.917 Y111.796 Z17.3 E1196.93474
G1 X130.577 Y114.161 Z17.391 E1246.63884
G1 X129.964 Y116.492 Z17.482 E1296.77792
G1 X129.096 Y118.722 Z17.573 E1346.55802
G1 X127.979 Y120.839 Z17.664 E1396.35137
G1 X126.622 Y122.823 Z17.755 E1446.35399
G1 X125.058 Y124.627 Z17.845 E1496.02114
G1 X123.288 Y126.253 Z17.936 E1546.01974
G1 X121.347 Y127.663 Z18.027 E1595.92667
G1 X119.269 Y128.837 Z18.118 E1645.57655
G1 X117.049 Y129.774 Z18.209 E1695.70287
G1 X114.761 Y130.446 Z18.3 E1745.30994
G1 X112.392 Y130.856 Z18.391 E1795.3236
G1 X110 Y130.993 Z18.482 E1845.1649
G1 X107.608 Y130.856 Z18.573 E1895.0062
G1 X105.239 Y130.446 Z18.664 E1945.01986
G1 X102.951 Y129.774 Z18.754 E1994.62614
G1 X100.731 Y128.837 Z18.846 E2044.75325
G1 X98.653 Y127.663 Z18.936 E2094.40234
G1 X96.712 Y126.253 Z19.027 E2144.30927
G1 X94.942 Y124.627 Z19.118 E2194.30787
G1 X93.378 Y122.823 Z19.209 E2243.97581
G1 X92.021 Y120.839 Z19.3 E2293.97843
G1 X90.904 Y118.722 Z19.391 E2343.77178
G1 X90.036 Y116.492 Z19.482 E2393.55188
G1 X89.423 Y114.161 Z19.573 E2443.69096
G1 X89.083 Y111.796 Z19.664 E2493.39506
G1 X89.015 Y109.409 Z19.754 E2543.07039
G1 X89.221 Y107.003 Z19.846 E2593.30472
G1 X89.695 Y104.665 Z19.936 E2642.93014
G1 X90.437 Y102.383 Z20.027 E2692.84791
G1 X91.428 Y100.211 Z20.118 E2742.51217
G1 X92.674 Y98.145 Z20.209 E2792.70096
G1 X94.135 Y96.251 Z20.3 E2842.46124
;TIME_ELAPSED:172.803859
;LAYER:4
;TYPE:WALL-OUTER
;MESH:Probeta Cilindrica de 50mm.STL
G1 X95.802 Y94.536 Z20.391 E2892.21438
G1 X97.661 Y93.016 Z20.482 E2942.16761
G1 X99.676 Y91.721 Z20.573 E2991.99511
G1 X101.834 Y90.66 Z20.664 E3042.01924
G1 X104.083 Y89.858 Z20.754 E3091.68941
G1 X106.42 Y89.314 Z20.845 E3141.60466
G1 X108.862 Y89.034 Z20.939 E3192.7379
G1 X110 Y89.001 Z20.982 E3216.42098
G1 X111.138 Y89.034 Z21.025 E3240.10407
G1 X113.58 Y89.314 Z21.118 E3291.23652
G1 X115.917 Y89.858 Z21.209 E3341.15177
G1 X118.166 Y90.66 Z21.3 E3390.82273
G1 X120.324 Y91.721 Z21.391 E3440.84686
G1 X122.339 Y93.016 Z21.482 E3490.67436
G1 X124.198 Y94.536 Z21.573 E3540.62759
G1 X125.865 Y96.251 Z21.664 E3590.38073
G1 X127.326 Y98.145 Z21.754 E3640.14022
G1 X128.572 Y100.211 Z21.846 E3690.3298
G1 X129.563 Y102.383 Z21.936 E3739.99327
G1 X130.305 Y104.665 Z22.027 E3789.91105
G1 X130.779 Y107.003 Z22.118 E3839.53724
G1 X130.985 Y109.409 Z22.209 E3889.77079
G1 X130.917 Y111.796 Z22.3 E3939.44691
G1 X130.577 Y114.161 Z22.391 E3989.15101
G1 X129.964 Y116.492 Z22.482 E4039.29009
G1 X129.096 Y118.722 Z22.573 E4089.07019
G1 X127.979 Y120.839 Z22.664 E4138.86354
G1 X126.622 Y122.823 Z22.755 E4188.86616
G92 E0
G1 X125.058 Y124.627 Z22.845 E49.66716
G1 X123.288 Y126.253 Z22.936 E99.66576
G1 X121.347 Y127.663 Z23.027 E149.57268
G1 X119.269 Y128.837 Z23.118 E199.22256
G1 X117.049 Y129.774 Z23.209 E249.34888
G1 X114.761 Y130.446 Z23.3 E298.95595
G1 X112.392 Y130.856 Z23.391 E348.96961
G1 X110 Y130.993 Z23.482 E398.81091
G1 X107.608 Y130.856 Z23.573 E448.65221
G1 X105.239 Y130.446 Z23.664 E498.66587
G1 X102.951 Y129.774 Z23.754 E548.27216
G1 X100.731 Y128.837 Z23.846 E598.39926
G1 X98.653 Y127.663 Z23.936 E648.04835
G1 X96.712 Y126.253 Z24.027 E697.95528
G1 X94.942 Y124.627 Z24.118 E747.95388
G1 X93.378 Y122.823 Z24.209 E797.62182
G1 X92.021 Y120.839 Z24.3 E847.62444
G1 X90.904 Y118.722 Z24.391 E897.41779
G1 X90.036 Y116.492 Z24.482 E947.19789
G1 X89.423 Y114.161 Z24.573 E997.33698
G1 X89.083 Y111.796 Z24.664 E1047.04107
G1 X89.015 Y109.409 Z24.754 E1096.71641
G1 X89.221 Y107.003 Z24.846 E1146.95074
G1 X89.695 Y104.665 Z24.936 E1196.57615
G1 X90.437 Y102.383 Z25.027 E1246.49393
G1 X91.428 Y100.211 Z25.118 E1296.15818
G1 X92.674 Y98.145 Z25.209 E1346.34698
G1 X94.135 Y96.251 Z25.3 E1396.10725
;TIME_ELAPSED:229.738697
;LAYER:5
;TYPE:WALL-OUTER
;MESH:Probeta Cilindrica de 50mm.STL
G1 X95.802 Y94.536 Z25.391 E1445.86039
G1 X97.661 Y93.016 Z25.482 E1495.81362
G1 X99.676 Y91.721 Z25.573 E1545.64112
G1 X101.834 Y90.66 Z25.664 E1595.66525
G1 X104.083 Y89.858 Z25.754 E1645.33542
G1 X106.42 Y89.314 Z25.845 E1695.25068
G1 X108.862 Y89.034 Z25.939 E1746.38391
G1 X110 Y89.001 Z25.982 E1770.067
G1 X111.138 Y89.034 Z26.025 E1793.75009
G1 X113.58 Y89.314 Z26.118 E1844.88253
G1 X115.917 Y89.858 Z26.209 E1894.79778
G1 X118.166 Y90.66 Z26.3 E1944.46874
G1 X120.324 Y91.721 Z26.391 E1994.49287
G1 X122.339 Y93.016 Z26.482 E2044.32037
G1 X124.198 Y94.536 Z26.573 E2094.2736
G1 X125.865 Y96.251 Z26.664 E2144.02674
G1 X127.326 Y98.145 Z26.754 E2193.78623
G1 X128.572 Y100.211 Z26.846 E2243.97581
G1 X129.563 Y102.383 Z26.936 E2293.63928
G1 X130.305 Y104.665 Z27.027 E2343.55706
G1 X130.779 Y107.003 Z27.118 E2393.18326
G1 X130.985 Y109.409 Z27.209 E2443.4168
G1 X130.917 Y111.796 Z27.3 E2493.09293
G1 X130.577 Y114.161 Z27.391 E2542.79702
G1 X129.964 Y116.492 Z27.482 E2592.9361
G1 X129.096 Y118.722 Z27.573 E2642.7162
G1 X127.979 Y120.839 Z27.664 E2692.50956
G1 X126.622 Y122.823 Z27.755 E2742.51217
G1 X125.058 Y124.627 Z27.845 E2792.17933
G1 X123.288 Y126.253 Z27.936 E2842.17793
G1 X121.347 Y127.663 Z28.027 E2892.08485
G1 X119.269 Y128.837 Z28.118 E2941.73473
G1 X117.049 Y129.774 Z28.209 E2991.86105
G1 X114.761 Y130.446 Z28.3 E3041.46812
G1 X112.392 Y130.856 Z28.391 E3091.48178
G1 X110 Y130.993 Z28.482 E3141.32308
G1 X107.608 Y130.856 Z28.573 E3191.16438
G1 X105.239 Y130.446 Z28.664 E3241.17804
G1 X102.951 Y129.774 Z28.754 E3290.78433
G1 X100.731 Y128.837 Z28.846 E3340.91144
G1 X98.653 Y127.663 Z28.936 E3390.56053
G1 X96.712 Y126.253 Z29.027 E3440.46745
G1 X94.942 Y124.627 Z29.118 E3490.46605
G1 X93.378 Y122.823 Z29.209 E3540.13399
G1 X92.021 Y120.839 Z29.3 E3590.13661
G1 X90.904 Y118.722 Z29.391 E3639.92996
G1 X90.036 Y116.492 Z29.482 E3689.71007
G1 X89.423 Y114.161 Z29.573 E3739.84915
G1 X89.083 Y111.796 Z29.664 E3789.55324
G1 X89.015 Y109.409 Z29.754 E3839.22858
G1 X89.221 Y107.003 Z29.846 E3889.46291
G1 X89.695 Y104.665 Z29.936 E3939.08832
G1 X90.437 Y102.383 Z30.027 E3989.0061
G1 X91.428 Y100.211 Z30.118 E4038.67036
G1 X92.674 Y98.145 Z30.209 E4088.85915
G1 X94.135 Y96.251 Z30.3 E4138.61942
;TIME_ELAPSED:252.593527
;LAYER:6
;TYPE:WALL-OUTER
;MESH:Probeta Cilindrica de 50mm.STL
G1 X95.802 Y94.536 Z30.391 E4188.37257
G92 E0
G1 X97.661 Y93.016 Z30.482 E49.95323
G1 X99.676 Y91.721 Z30.573 E99.78073
G1 X101.834 Y90.66 Z30.664 E149.80486
G1 X104.083 Y89.858 Z30.754 E199.47503
G1 X106.42 Y89.314 Z30.845 E249.39028
G1 X108.862 Y89.034 Z30.939 E300.52351
G1 X110 Y89.001 Z30.982 E324.2066
G1 X111.138 Y89.034 Z31.025 E347.88969
G1 X113.58 Y89.314 Z31.118 E399.02214
G1 X115.917 Y89.858 Z31.209 E448.93739
G1 X118.166 Y90.66 Z31.3 E498.60835
G1 X120.324 Y91.721 Z31.391 E548.63248
G1 X122.339 Y93.016 Z31.482 E598.45998
G1 X124.198 Y94.536 Z31.573 E648.4132
G1 X125.865 Y96.251 Z31.664 E698.16635
G1 X127.326 Y98.145 Z31.754 E747.92584
G1 X128.572 Y100.211 Z31.846 E798.11542
G1 X129.563 Y102.383 Z31.936 E847.77889
G1 X130.305 Y104.665 Z32.027 E897.69666
G1 X130.779 Y107.003 Z32.118 E947.32286
G1 X130.985 Y109.409 Z32.209 E997.55641
G1 X130.917 Y111.796 Z32.3 E1047.23253
G1 X130.577 Y114.161 Z32.391 E1096.93663
G1 X129.964 Y116.492 Z32.482 E1147.07571
G1 X129.096 Y118.722 Z32.573 E1196.85581
G1 X127.979 Y120.839 Z32.664 E1246.64916
G1 X126.622 Y122.823 Z32.755 E1296.65178
G1 X125.058 Y124.627 Z32.845 E1346.31893
G1 X123.288 Y126.253 Z32.936 E1396.31753
G1 X121.347 Y127.663 Z33.027 E1446.22446
G1 X119.269 Y128.837 Z33.118 E1495.87434
G1 X117.049 Y129.774 Z33.209 E1546.00066
G1 X114.761 Y130.446 Z33.3 E1595.60773
G1 X112.392 Y130.856 Z33.391 E1645.62139
G1 X110 Y130.993 Z33.482 E1695.46269
G1 X107.608 Y130.856 Z33.573 E1745.30399
G1 X105.239 Y130.446 Z33.664 E1795.31765
G1 X102.951 Y129.774 Z33.754 E1844.92393
G1 X100.731 Y128.837 Z33.846 E1895.05104
G1 X98.653 Y127.663 Z33.936 E1944.70013
G1 X96.712 Y126.253 Z34.027 E1994.60706
G1 X94.942 Y124.627 Z34.118 E2044.60566
G1 X93.378 Y122.823 Z34.209 E2094.2736
G1 X92.021 Y120.839 Z34.3 E2144.27622
G1 X90.904 Y118.722 Z34.391 E2194.06957
G1 X90.036 Y116.492 Z34.482 E2243.84967
G1 X89.423 Y114.161 Z34.573 E2293.98875
G1 X89.083 Y111.796 Z34.664 E2343.69285
G1 X89.015 Y109.409 Z34.754 E2393.36818
G1 X89.221 Y107.003 Z34.846 E2443.60252
G1 X89.695 Y104.665 Z34.936 E2493.22793
G1 X90.437 Y102.383 Z35.027 E2543.1457
G1 X91.428 Y100.211 Z35.118 E2592.80996
G1 X92.674 Y98.145 Z35.209 E2642.99875
G1 X94.135 Y96.251 Z35.3 E2692.75903
;TIME_ELAPSED:309.519483
;LAYER:7
;TYPE:WALL-OUTER
;MESH:Probeta Cilindrica de 50mm.STL
G1 X95.802 Y94.536 Z35.391 E2742.51217
G1 X97.661 Y93.016 Z35.482 E2792.4654
G1 X99.676 Y91.721 Z35.573 E2842.2929
G1 X101.834 Y90.66 Z35.664 E2892.31703
G1 X104.083 Y89.858 Z35.754 E2941.9872
G1 X106.42 Y89.314 Z35.845 E2991.90245
G1 X108.862 Y89.034 Z35.939 E3043.03569
G1 X110 Y89.001 Z35.982 E3066.71878
G1 X111.138 Y89.034 Z36.025 E3090.40186
G1 X113.58 Y89.314 Z36.118 E3141.53431
G1 X115.917 Y89.858 Z36.209 E3191.44956
G1 X118.166 Y90.66 Z36.3 E3241.12052
G1 X120.324 Y91.721 Z36.391 E3291.14465
G1 X122.339 Y93.016 Z36.482 E3340.97215
G1 X124.198 Y94.536 Z36.573 E3390.92538
G1 X125.865 Y96.251 Z36.664 E3440.67852
G1 X127.326 Y98.145 Z36.754 E3490.43801
G1 X128.572 Y100.211 Z36.846 E3540.62759
G1 X129.563 Y102.383 Z36.936 E3590.29106
G1 X130.305 Y104.665 Z37.027 E3640.20884
G1 X130.779 Y107.003 Z37.118 E3689.83503
G1 X130.985 Y109.409 Z37.209 E3740.06858
G1 X130.917 Y111.796 Z37.3 E3789.7447
G1 X130.577 Y114.161 Z37.391 E3839.4488
G1 X129.964 Y116.492 Z37.482 E3889.58788
G1 X129.096 Y118.722 Z37.573 E3939.36798
G1 X127.979 Y120.839 Z37.664 E3989.16133
G1 X126.622 Y122.823 Z37.755 E4039.16395
G1 X125.058 Y124.627 Z37.845 E4088.83111
G1 X123.288 Y126.253 Z37.936 E4138.82971
G1 X121.347 Y127.663 Z38.027 E4188.73663
G92 E0
G1 X119.269 Y128.837 Z38.118 E49.64988
G1 X117.049 Y129.774 Z38.209 E99.7762
G1 X114.761 Y130.446 Z38.3 E149.38327
G1 X112.392 Y130.856 Z38.391 E199.39693
G1 X110 Y130.993 Z38.482 E249.23823
G1 X107.608 Y130.856 Z38.573 E299.07953
G1 X105.239 Y130.446 Z38.664 E349.09319
G1 X102.951 Y129.774 Z38.754 E398.69948
G1 X100.731 Y128.837 Z38.846 E448.82658
G1 X98.653 Y127.663 Z38.936 E498.47567
G1 X96.712 Y126.253 Z39.027 E548.3826
G1 X94.942 Y124.627 Z39.118 E598.3812
G1 X93.378 Y122.823 Z39.209 E648.04914
G1 X92.021 Y120.839 Z39.3 E698.05176
G1 X90.904 Y118.722 Z39.391 E747.84511
G1 X90.036 Y116.492 Z39.482 E797.62521
G1 X89.423 Y114.161 Z39.573 E847.76429
G1 X89.083 Y111.796 Z39.664 E897.46839
G1 X89.015 Y109.409 Z39.754 E947.14372
G1 X89.221 Y107.003 Z39.846 E997.37806
G1 X89.695 Y104.665 Z39.936 E1047.00347
G1 X90.437 Y102.383 Z40.027 E1096.92124
G1 X91.428 Y100.211 Z40.118 E1146.5855
G1 X92.674 Y98.145 Z40.209 E1196.7743
G1 X94.135 Y96.251 Z40.3 E1246.53457
;TIME_ELAPSED:366.453529
;LAYER:8
;TYPE:WALL-OUTER
;MESH:Probeta Cilindrica de 50mm.STL
G1 X95.802 Y94.536 Z40.391 E1296.28771
G1 X97.661 Y93.016 Z40.482 E1346.24094
G1 X99.676 Y91.721 Z40.573 E1396.06844
G1 X101.834 Y90.66 Z40.664 E1446.09257
G1 X104.083 Y89.858 Z40.754 E1495.76274
G1 X106.42 Y89.314 Z40.845 E1545.67799
G1 X108.862 Y89.034 Z40.939 E1596.81123
G1 X110 Y89.001 Z40.982 E1620.49432
G1 X111.138 Y89.034 Z41.025 E1644.17741
G1 X113.58 Y89.314 Z41.118 E1695.30985
G1 X115.917 Y89.858 Z41.209 E1745.2251
G1 X118.166 Y90.66 Z41.3 E1794.89606
G1 X120.324 Y91.721 Z41.391 E1844.92019
G1 X122.339 Y93.016 Z41.482 E1894.74769
G1 X124.198 Y94.536 Z41.573 E1944.70092
G1 X125.865 Y96.251 Z41.664 E1994.45406
G1 X127.326 Y98.145 Z41.754 E2044.21355
G1 X128.572 Y100.211 Z41.846 E2094.40313
G1 X129.563 Y102.383 Z41.936 E2144.0666
G1 X130.305 Y104.665 Z42.027 E2193.98438
G1 X130.779 Y107.003 Z42.118 E2243.61058
G1 X130.985 Y109.409 Z42.209 E2293.84412
G1 X130.917 Y111.796 Z42.3 E2343.52025
G1 X130.577 Y114.161 Z42.391 E2393.22434
G1 X129.964 Y116.492 Z42.482 E2443.36342
G1 X129.096 Y118.722 Z42.573 E2493.14352
G1 X127.979 Y120.839 Z42.664 E2542.93688
G1 X126.622 Y122.823 Z42.755 E2592.93949
G1 X125.058 Y124.627 Z42.845 E2642.60665
G1 X123.288 Y126.253 Z42.936 E2692.60525
G1 X121.347 Y127.663 Z43.027 E2742.51217
G1 X119.269 Y128.837 Z43.118 E2792.16205
G1 X117.049 Y129.774 Z43.209 E2842.28837
G1 X114.761 Y130.446 Z43.3 E2891.89544
G1 X112.392 Y130.856 Z43.391 E2941.9091
G1 X110 Y130.993 Z43.482 E2991.7504
G1 X107.608 Y130.856 Z43.573 E3041.5917
G1 X105.239 Y130.446 Z43.664 E3091.60536
G1 X102.951 Y129.774 Z43.754 E3141.21165
G1 X100.731 Y128.837 Z43.846 E3191.33875
G1 X98.653 Y127.663 Z43.936 E3240.98785
G1 X96.712 Y126.253 Z44.027 E3290.89477
G1 X94.942 Y124.627 Z44.118 E3340.89337
G1 X93.378 Y122.823 Z44.209 E3390.56131
G1 X92.021 Y120.839 Z44.3 E3440.56393
G1 X90.904 Y118.722 Z44.391 E3490.35728
G1 X90.036 Y116.492 Z44.482 E3540.13739
G1 X89.423 Y114.161 Z44.573 E3590.27647
G1 X89.083 Y111.796 Z44.664 E3639.98056
G1 X89.015 Y109.409 Z44.754 E3689.6559
G1 X89.221 Y107.003 Z44.846 E3739.89023
G1 X89.695 Y104.665 Z44.936 E3789.51564
G1 X90.437 Y102.383 Z45.027 E3839.43342
G1 X91.428 Y100.211 Z45.118 E3889.09767
G1 X92.674 Y98.145 Z45.209 E3939.28647
G1 X94.135 Y96.251 Z45.3 E3989.04674
;TIME_ELAPSED:389.308359
;LAYER:9
;TYPE:WALL-OUTER
;MESH:Probeta Cilindrica de 50mm.STL
G1 X95.802 Y94.536 Z45.391 E4038.79988
G1 X97.661 Y93.016 Z45.482 E4088.75311
G1 X99.676 Y91.721 Z45.573 E4138.58061
G1 X101.834 Y90.66 Z45.664 E4188.60474
G92 E0
G1 X104.083 Y89.858 Z45.754 E49.67017
G1 X106.42 Y89.314 Z45.845 E99.58542
G1 X108.862 Y89.034 Z45.939 E150.71866
G1 X110 Y89.001 Z45.982 E174.40175
G1 X111.138 Y89.034 Z46.025 E198.08484
G1 X113.58 Y89.314 Z46.118 E249.21728
G1 X115.917 Y89.858 Z46.209 E299.13253
G1 X118.166 Y90.66 Z46.3 E348.80349
G1 X120.324 Y91.721 Z46.391 E398.82762
G1 X122.339 Y93.016 Z46.482 E448.65512
G1 X124.198 Y94.536 Z46.573 E498.60835
G1 X125.865 Y96.251 Z46.664 E548.36149
G1 X127.326 Y98.145 Z46.754 E598.12098
G1 X128.572 Y100.211 Z46.846 E648.31056
G1 X129.563 Y102.383 Z46.936 E697.97403
G1 X130.305 Y104.665 Z47.027 E747.89181
G1 X130.779 Y107.003 Z47.118 E797.51801
G1 X130.985 Y109.409 Z47.209 E847.75155
G1 X130.917 Y111.796 Z47.3 E897.42768
G1 X130.577 Y114.161 Z47.391 E947.13177
G1 X129.964 Y116.492 Z47.482 E997.27085
G1 X129.096 Y118.722 Z47.573 E1047.05095
G1 X127.979 Y120.839 Z47.664 E1096.84431
G1 X126.622 Y122.823 Z47.755 E1146.84692
G1 X125.058 Y124.627 Z47.845 E1196.51408
G1 X123.288 Y126.253 Z47.936 E1246.51268
G1 X121.347 Y127.663 Z48.027 E1296.4196
G1 X119.269 Y128.837 Z48.118 E1346.06948
G1 X117.049 Y129.774 Z48.209 E1396.1958
G1 X114.761 Y130.446 Z48.3 E1445.80287
G1 X112.392 Y130.856 Z48.391 E1495.81653
G1 X110 Y130.993 Z48.482 E1545.65783
G1 X107.608 Y130.856 Z48.573 E1595.49913
G1 X105.239 Y130.446 Z48.664 E1645.51279
G1 X102.951 Y129.774 Z48.754 E1695.11908
G1 X100.731 Y128.837 Z48.846 E1745.24618
G1 X98.653 Y127.663 Z48.936 E1794.89527
G1 X96.712 Y126.253 Z49.027 E1844.8022
G1 X94.942 Y124.627 Z49.118 E1894.8008
G1 X93.378 Y122.823 Z49.209 E1944.46874
G1 X92.021 Y120.839 Z49.3 E1994.47136
G1 X90.904 Y118.722 Z49.391 E2044.26471
G1 X90.036 Y116.492 Z49.482 E2094.04482
G1 X89.423 Y114.161 Z49.573 E2144.1839
G1 X89.083 Y111.796 Z49.664 E2193.88799
G1 X89.015 Y109.409 Z49.754 E2243.56333
G1 X89.221 Y107.003 Z49.846 E2293.79766
G1 X89.695 Y104.665 Z49.936 E2343.42307
G1 X90.437 Y102.383 Z50.027 E2393.34085
G1 X91.428 Y100.211 Z50.118 E2443.0051
G1 X92.674 Y98.145 Z50.209 E2493.1939
G1 X94.135 Y96.251 Z50.3 E2542.95417
;TIME_ELAPSED:446.240968
;LAYER:10
;TYPE:WALL-OUTER
;MESH:Probeta Cilindrica de 50mm.STL
G1 F1582 X95.802 Y94.536 Z50.349 E2592.68177
G1 X97.661 Y93.016 Z50.399 E2642.60999
G1 X99.676 Y91.721 Z50.448 E2692.41199
G1 X101.834 Y90.66 Z50.498 E2742.41114
G1 X104.083 Y89.858 Z50.547 E2792.05651
G1 X106.42 Y89.314 Z50.597 E2841.94674
G1 X108.862 Y89.034 Z50.648 E2893.05362
G1 X110 Y89.001 Z50.671 E2916.72466
G1 X111.138 Y89.034 Z50.695 E2940.39614
G1 X113.58 Y89.314 Z50.746 E2991.50302
G1 X115.917 Y89.858 Z50.795 E3041.39281
G1 X118.166 Y90.66 Z50.844 E3091.03818
G1 X120.324 Y91.721 Z50.894 E3141.03734
G1 X122.339 Y93.016 Z50.944 E3190.83977
G1 X124.198 Y94.536 Z50.993 E3240.76755
G1 X125.865 Y96.251 Z51.043 E3290.49558
G1 X127.326 Y98.145 Z51.092 E3340.23032
G1 X128.572 Y100.211 Z51.142 E3390.39422
G1 X129.563 Y102.383 Z51.191 E3440.03289
G1 X130.305 Y104.665 Z51.241 E3489.92564
G1 X130.779 Y107.003 Z51.29 E3539.52623
G1 X130.985 Y109.409 Z51.34 E3589.73491
G1 X130.917 Y111.796 Z51.389 E3639.38545
G1 X130.577 Y114.161 Z51.438 E3689.06398
G1 X129.964 Y116.492 Z51.488 E3739.17814
G1 X129.096 Y118.722 Z51.538 E3788.93314
G1 X127.979 Y120.839 Z51.587 E3838.70098
G1 X126.622 Y122.823 Z51.637 E3888.67861
G1 X125.058 Y124.627 Z51.686 E3938.32096
G1 X123.288 Y126.253 Z51.736 E3988.29458
G1 X121.347 Y127.663 Z51.785 E4038.17604
G1 X119.269 Y128.837 Z51.835 E4087.80075
G1 X117.049 Y129.774 Z51.884 E4137.90172
G1 X114.761 Y130.446 Z51.934 E4187.48361
G92 E0
G1 X112.392 Y130.856 Z51.983 E49.98825
G1 X110 Y130.993 Z52.033 E99.80448
G1 X107.608 Y130.856 Z52.082 E149.62029
G1 X105.239 Y130.446 Z52.132 E199.60897
G1 X102.951 Y129.774 Z52.181 E249.19042
G1 X100.731 Y128.837 Z52.231 E299.29182
G1 X98.653 Y127.663 Z52.28 E348.9161
G1 X96.712 Y126.253 Z52.33 E398.79799
G1 X94.942 Y124.627 Z52.379 E448.77118
G1 X93.378 Y122.823 Z52.429 E498.41397
G1 X92.021 Y120.839 Z52.478 E548.39117
G1 X90.904 Y118.722 Z52.528 E598.15943
G1 X90.036 Y116.492 Z52.577 E647.91401
G1 X89.423 Y114.161 Z52.627 E698.02817
G1 X89.083 Y111.796 Z52.676 E747.70669
G1 X89.015 Y109.409 Z52.726 E797.35767
G1 X89.221 Y107.003 Z52.775 E847.56592
G1 X89.695 Y104.665 Z52.825 E897.16694
G1 X90.437 Y102.383 Z52.874 E947.05926
G1 X91.428 Y100.211 Z52.924 E996.69836
G1 X92.674 Y98.145 Z52.973 E1046.86184
G1 X94.135 Y96.251 Z53.023 E1096.597
G1 X95.802 Y94.536 E1143.82831
G1 X97.661 Y93.016 E1191.24984
G1 X99.676 Y91.721 E1236.06226
G1 X101.834 Y90.66 E1281.05177
G1 X104.083 Y89.858 E1325.72321
G1 X106.42 Y89.314 E1368.12069
G1 X108.862 Y89.034 E1411.55219
G1 X110 Y89.001 E1431.66847
G1 X111.138 Y89.034 E1451.78476
G1 X113.58 Y89.314 E1492.66146
G1 X115.917 Y89.858 E1532.56498
G1 X118.166 Y90.66 E1572.27292
G1 X120.324 Y91.721 E1609.76418
G1 X122.339 Y93.016 E1647.10787
G1 X124.198 Y94.536 E1682.05004
G1 X125.865 Y96.251 E1716.85206
G1 X127.326 Y98.145 E1751.65907
G1 X128.572 Y100.211 E1784.25861
G1 X129.563 Y102.383 E1816.51695
G1 X130.305 Y104.665 E1848.9402
G1 X130.779 Y107.003 E1878.69428
G1 X130.985 Y109.409 E1908.81303
G1 X130.917 Y111.796 E1938.59709
G1 X130.577 Y114.161 E1965.91453
G1 X129.964 Y116.492 E1993.47139
G1 X129.096 Y118.722 E2018.34347
G1 X127.979 Y120.839 E2043.22217
G1 X126.622 Y122.823 E2068.20558
G1 X125.058 Y124.627 E2090.53994
G1 X123.288 Y126.253 E2113.0232
G1 X121.347 Y127.663 E2135.46518
G1 X119.269 Y128.837 E2155.31071
G1 X117.049 Y129.774 E2175.34695
G1 X114.761 Y130.446 E2195.17535
G1 X112.392 Y130.856 E2212.6676
G1 X110 Y130.993 E2230.09949
G1 X107.608 Y130.856 E2245.04111
G1 X105.239 Y130.446 E2260.03447
G1 X102.951 Y129.774 E2274.90577
G1 X100.731 Y128.837 E2287.42842
G1 X98.653 Y127.663 E2299.83188
G1 X96.712 Y126.253 E2312.29964
G1 X94.942 Y124.627
G1 X93.378 Y122.823
G1 X92.021 Y120.839
G1 X90.904 Y118.722
G1 X90.036 Y116.492
;TIME_ELAPSED:513.769957
G1 F2100 E2311.49964
M107
M104 S0 ; turn off extruder
M140 S0 ; turn off heatbed
M107 ; turn off fan
G1 X0 Y210; home X axis and push Y forward
M84 ; disable motors
M82 ;absolute extrusion mode
M104 S0
;End of Gcode
;SETTING_3 {"global_quality": "[general]\\nversion = 4\\nname = UTN CEMENTO\\nde
;SETTING_3 finition = prusa_i3_mk2\\n\\n[metadata]\\ntype = quality_changes\\nqu
;SETTING_3 ality_type = normal\\nsetting_version = 20\\n\\n[values]\\nadhesion_t
;SETTING_3 ype = none\\nlayer_height = 5\\nlayer_height_0 = 0.3\\nmagic_spiraliz
;SETTING_3 e = True\\nmaterial_bed_temperature = 23\\nsupport_type = buildplate\
;SETTING_3 \n\\n", "extruder_quality": ["[general]\\nversion = 4\\nname = UTN CE
;SETTING_3 MENTO\\ndefinition = prusa_i3_mk2\\n\\n[metadata]\\ntype = quality_ch
;SETTING_3 anges\\nquality_type = normal\\nintent_category = default\\nposition 
;SETTING_3 = 0\\nsetting_version = 20\\n\\n[values]\\ninfill_line_width = 10\\ni
;SETTING_3 nfill_pattern = lines\\ninfill_sparse_density = 100\\nline_width = 0.
;SETTING_3 8\\nmaterial_print_temperature = 231\\nskirt_line_count = 4\\nspeed_l
;SETTING_3 ayer_0 = 40\\nspeed_print = 30\\nspeed_wall = 40\\nsupport_infill_rat
;SETTING_3 e = 10\\nsupport_pattern = cross\\nsupport_xy_distance = 1.2\\nsuppor
;SETTING_3 t_z_distance = 0.35\\ntop_bottom_thickness = 5\\nwall_line_count = 1\
;SETTING_3 \nwall_line_width = 10\\nwall_thickness = =wall_line_width_0 if magic
;SETTING_3 _spiralize else 0.8\\nxy_offset = 1\\nz_seam_type = shortest\\n\\n"]}
